{"fetched_at":"2026-07-14T17:40:56.691Z","source":"https://celestrak.org/NORAD/elements/gp.php?NAME=NUSAT&FORMAT=JSON","constellation":"satellogic","records":[{"OBJECT_NAME":"NUSAT-26 (M SOMERVILLE)","OBJECT_ID":"2022-033AD","EPOCH":"2026-07-14T03:50:31.128000","CLASSIFICATION_TYPE":"U","MEAN_MOTION":15.43224177,"ECCENTRICITY":0.0006975,"INCLINATION":97.235,"RA_OF_ASC_NODE":274.0471,"ARG_OF_PERICENTER":141.3809,"MEAN_ANOMALY":218.7939,"EPHEMERIS_TYPE":0,"NORAD_CAT_ID":52184,"ELEMENT_SET_NO":999,"REV_AT_EPOCH":10886,"BSTAR":0.00029027,"MEAN_MOTION_DOT":0.00012819,"MEAN_MOTION_DDOT":0},{"OBJECT_NAME":"NUSAT-33 (ALBANIA-2)","OBJECT_ID":"2023-001AQ","EPOCH":"2026-07-14T04:33:51.632352","CLASSIFICATION_TYPE":"U","MEAN_MOTION":15.2825505,"ECCENTRICITY":0.0004888,"INCLINATION":97.306,"RA_OF_ASC_NODE":255.5794,"ARG_OF_PERICENTER":319.621,"MEAN_ANOMALY":40.4666,"EPHEMERIS_TYPE":0,"NORAD_CAT_ID":55047,"ELEMENT_SET_NO":999,"REV_AT_EPOCH":19643,"BSTAR":0.00020439,"MEAN_MOTION_DOT":0.00005554,"MEAN_MOTION_DDOT":0},{"OBJECT_NAME":"NUSAT-35 (WILLIAMINA)","OBJECT_ID":"2023-001AR","EPOCH":"2026-07-14T03:27:46.629216","CLASSIFICATION_TYPE":"U","MEAN_MOTION":15.35808881,"ECCENTRICITY":0.0010572,"INCLINATION":97.1839,"RA_OF_ASC_NODE":247.2194,"ARG_OF_PERICENTER":13.9015,"MEAN_ANOMALY":346.2518,"EPHEMERIS_TYPE":0,"NORAD_CAT_ID":55048,"ELEMENT_SET_NO":999,"REV_AT_EPOCH":19654,"BSTAR":0.00025639,"MEAN_MOTION_DOT":0.0000887,"MEAN_MOTION_DDOT":0},{"OBJECT_NAME":"NUSAT-39 (TIKVAH ALPER)","OBJECT_ID":"2023-054Z","EPOCH":"2026-07-14T04:57:18.574272","CLASSIFICATION_TYPE":"U","MEAN_MOTION":15.47984583,"ECCENTRICITY":0.0002007,"INCLINATION":97.3101,"RA_OF_ASC_NODE":105.2308,"ARG_OF_PERICENTER":329.0102,"MEAN_ANOMALY":31.1029,"EPHEMERIS_TYPE":0,"NORAD_CAT_ID":56201,"ELEMENT_SET_NO":999,"REV_AT_EPOCH":18263,"BSTAR":0.00033481,"MEAN_MOTION_DOT":0.00017411,"MEAN_MOTION_DDOT":0},{"OBJECT_NAME":"NUSAT-38 (MARIA AGNESI)","OBJECT_ID":"2023-054AA","EPOCH":"2026-07-14T04:52:45.818112","CLASSIFICATION_TYPE":"U","MEAN_MOTION":15.51159338,"ECCENTRICITY":0.0008891,"INCLINATION":97.304,"RA_OF_ASC_NODE":105.959,"ARG_OF_PERICENTER":331.6192,"MEAN_ANOMALY":28.4575,"EPHEMERIS_TYPE":0,"NORAD_CAT_ID":56202,"ELEMENT_SET_NO":999,"REV_AT_EPOCH":18269,"BSTAR":0.00035683,"MEAN_MOTION_DOT":0.00020794,"MEAN_MOTION_DDOT":0},{"OBJECT_NAME":"NUSAT-37 (JOAN CLARKE)","OBJECT_ID":"2023-054AB","EPOCH":"2026-07-14T04:51:44.928576","CLASSIFICATION_TYPE":"U","MEAN_MOTION":15.59550141,"ECCENTRICITY":0.000771,"INCLINATION":97.261,"RA_OF_ASC_NODE":102.8312,"ARG_OF_PERICENTER":146.7222,"MEAN_ANOMALY":213.4521,"EPHEMERIS_TYPE":0,"NORAD_CAT_ID":56203,"ELEMENT_SET_NO":999,"REV_AT_EPOCH":18285,"BSTAR":0.00041115,"MEAN_MOTION_DOT":0.00032661,"MEAN_MOTION_DDOT":0},{"OBJECT_NAME":"NUSAT-40 (C SHOEMAKER)","OBJECT_ID":"2023-084M","EPOCH":"2026-07-14T03:34:00.172704","CLASSIFICATION_TYPE":"U","MEAN_MOTION":15.82214315,"ECCENTRICITY":0.0004153,"INCLINATION":97.4866,"RA_OF_ASC_NODE":343.9195,"ARG_OF_PERICENTER":190.2687,"MEAN_ANOMALY":169.8497,"EPHEMERIS_TYPE":0,"NORAD_CAT_ID":56943,"ELEMENT_SET_NO":999,"REV_AT_EPOCH":17306,"BSTAR":0.00056888,"MEAN_MOTION_DOT":0.00117691,"MEAN_MOTION_DDOT":0},{"OBJECT_NAME":"NUSAT-41 (C PAYNE-G)","OBJECT_ID":"2023-084N","EPOCH":"2026-07-14T04:50:09.435840","CLASSIFICATION_TYPE":"U","MEAN_MOTION":15.30140813,"ECCENTRICITY":0.0006382,"INCLINATION":97.5547,"RA_OF_ASC_NODE":332.3528,"ARG_OF_PERICENTER":214.7285,"MEAN_ANOMALY":145.3539,"EPHEMERIS_TYPE":0,"NORAD_CAT_ID":56944,"ELEMENT_SET_NO":999,"REV_AT_EPOCH":17191,"BSTAR":0.00022825,"MEAN_MOTION_DOT":0.00006581,"MEAN_MOTION_DDOT":0},{"OBJECT_NAME":"NUSAT-42 (M WONENBURGER)","OBJECT_ID":"2023-084AL","EPOCH":"2026-07-14T03:46:04.995264","CLASSIFICATION_TYPE":"U","MEAN_MOTION":15.46480726,"ECCENTRICITY":0.0006742,"INCLINATION":97.5743,"RA_OF_ASC_NODE":340.4271,"ARG_OF_PERICENTER":149.1687,"MEAN_ANOMALY":210.9959,"EPHEMERIS_TYPE":0,"NORAD_CAT_ID":56966,"ELEMENT_SET_NO":999,"REV_AT_EPOCH":17224,"BSTAR":0.0002917,"MEAN_MOTION_DOT":0.00014389,"MEAN_MOTION_DDOT":0},{"OBJECT_NAME":"NUSAT-44 (MARIA MITCHELL)","OBJECT_ID":"2024-043AA","EPOCH":"2026-07-14T03:46:13.982592","CLASSIFICATION_TYPE":"U","MEAN_MOTION":15.29837533,"ECCENTRICITY":0.0006412,"INCLINATION":97.548,"RA_OF_ASC_NODE":335.8326,"ARG_OF_PERICENTER":134.3954,"MEAN_ANOMALY":225.7812,"EPHEMERIS_TYPE":0,"NORAD_CAT_ID":59122,"ELEMENT_SET_NO":999,"REV_AT_EPOCH":13139,"BSTAR":0.00023096,"MEAN_MOTION_DOT":0.00006598,"MEAN_MOTION_DDOT":0},{"OBJECT_NAME":"NUSAT-50 (NANCY ROMAN)","OBJECT_ID":"2024-149AB","EPOCH":"2026-07-14T04:15:57.917088","CLASSIFICATION_TYPE":"U","MEAN_MOTION":15.30308087,"ECCENTRICITY":0.0004858,"INCLINATION":97.3787,"RA_OF_ASC_NODE":276.2522,"ARG_OF_PERICENTER":103.8394,"MEAN_ANOMALY":256.3387,"EPHEMERIS_TYPE":0,"NORAD_CAT_ID":60493,"ELEMENT_SET_NO":999,"REV_AT_EPOCH":10625,"BSTAR":0.00018903,"MEAN_MOTION_DOT":0.00005466,"MEAN_MOTION_DDOT":0},{"OBJECT_NAME":"NUSAT-48 (HENRIETTA LEAVITT)","OBJECT_ID":"2024-149AG","EPOCH":"2026-07-14T04:00:06.321312","CLASSIFICATION_TYPE":"U","MEAN_MOTION":15.30264355,"ECCENTRICITY":0.0004685,"INCLINATION":97.3921,"RA_OF_ASC_NODE":276.5311,"ARG_OF_PERICENTER":161.5514,"MEAN_ANOMALY":198.5897,"EPHEMERIS_TYPE":0,"NORAD_CAT_ID":60498,"ELEMENT_SET_NO":999,"REV_AT_EPOCH":10626,"BSTAR":0.00018484,"MEAN_MOTION_DOT":0.00005336,"MEAN_MOTION_DDOT":0},{"OBJECT_NAME":"NUSAT-49 (KLARA DAN VON NEUMANN)","OBJECT_ID":"2024-149AJ","EPOCH":"2026-07-14T03:26:04.532064","CLASSIFICATION_TYPE":"U","MEAN_MOTION":15.30371601,"ECCENTRICITY":0.0002421,"INCLINATION":97.378,"RA_OF_ASC_NODE":276.2501,"ARG_OF_PERICENTER":166.8402,"MEAN_ANOMALY":193.2902,"EPHEMERIS_TYPE":0,"NORAD_CAT_ID":60500,"ELEMENT_SET_NO":999,"REV_AT_EPOCH":10625,"BSTAR":0.00017492,"MEAN_MOTION_DOT":0.00005061,"MEAN_MOTION_DDOT":0},{"OBJECT_NAME":"NUSAT-45 (UZMASAT-1)","OBJECT_ID":"2025-009AH","EPOCH":"2026-07-14T04:44:25.859328","CLASSIFICATION_TYPE":"U","MEAN_MOTION":15.30370835,"ECCENTRICITY":0.0001767,"INCLINATION":97.3596,"RA_OF_ASC_NODE":276.1551,"ARG_OF_PERICENTER":180.9236,"MEAN_ANOMALY":179.2002,"EPHEMERIS_TYPE":0,"NORAD_CAT_ID":62640,"ELEMENT_SET_NO":999,"REV_AT_EPOCH":8305,"BSTAR":0.0001759,"MEAN_MOTION_DOT":0.0000509,"MEAN_MOTION_DDOT":0},{"OBJECT_NAME":"NUSAT-52","OBJECT_ID":"2025-276AC","EPOCH":"2026-07-14T03:22:36.523200","CLASSIFICATION_TYPE":"U","MEAN_MOTION":15.20031156,"ECCENTRICITY":0.0001622,"INCLINATION":97.4201,"RA_OF_ASC_NODE":268.2437,"ARG_OF_PERICENTER":286.2922,"MEAN_ANOMALY":73.8135,"EPHEMERIS_TYPE":0,"NORAD_CAT_ID":66692,"ELEMENT_SET_NO":999,"REV_AT_EPOCH":3451,"BSTAR":0.00014378,"MEAN_MOTION_DOT":0.00003031,"MEAN_MOTION_DDOT":0},{"OBJECT_NAME":"NUSAT-51 (YVONNE BRILL)","OBJECT_ID":"2025-276CC","EPOCH":"2026-07-14T03:24:49.578336","CLASSIFICATION_TYPE":"U","MEAN_MOTION":15.20559345,"ECCENTRICITY":0.0001736,"INCLINATION":97.4207,"RA_OF_ASC_NODE":268.3873,"ARG_OF_PERICENTER":242.3488,"MEAN_ANOMALY":117.7571,"EPHEMERIS_TYPE":0,"NORAD_CAT_ID":66740,"ELEMENT_SET_NO":999,"REV_AT_EPOCH":3452,"BSTAR":0.00017523,"MEAN_MOTION_DOT":0.00003767,"MEAN_MOTION_DDOT":0}]}
