NUSAT-26 (M SOMERVILLE) 
1 52184U 22033AD  26195.16008250  .00012819  00000+0  29027-3 0  9998
2 52184  97.2350 274.0471 0006975 141.3809 218.7939 15.43224177108864
NUSAT-33 (ALBANIA-2)    
1 55047U 23001AQ  26195.19018093  .00005554  00000+0  20439-3 0  9990
2 55047  97.3060 255.5794 0004888 319.6210  40.4666 15.28255050196437
NUSAT-35 (WILLIAMINA)   
1 55048U 23001AR  26195.14428969  .00008870  00000+0  25639-3 0  9994
2 55048  97.1839 247.2194 0010572  13.9015 346.2518 15.35808881196545
NUSAT-39 (TIKVAH ALPER) 
1 56201U 23054Z   26195.20646498  .00017411  00000+0  33481-3 0  9995
2 56201  97.3101 105.2308 0002007 329.0102  31.1029 15.47984583182632
NUSAT-38 (MARIA AGNESI) 
1 56202U 23054AA  26195.20330808  .00020794  00000+0  35683-3 0  9995
2 56202  97.3040 105.9590 0008891 331.6192  28.4575 15.51159338182698
NUSAT-37 (JOAN CLARKE)  
1 56203U 23054AB  26195.20260334  .00032661  00000+0  41115-3 0  9995
2 56203  97.2610 102.8312 0007710 146.7222 213.4521 15.59550141182857
NUSAT-40 (C SHOEMAKER)  
1 56943U 23084M   26195.14861311  .00117691  00000+0  56888-3 0  9994
2 56943  97.4866 343.9195 0004153 190.2687 169.8497 15.82214315173062
NUSAT-41 (C PAYNE-G)    
1 56944U 23084N   26195.20149810  .00006581  00000+0  22825-3 0  9994
2 56944  97.5547 332.3528 0006382 214.7285 145.3539 15.30140813171916
NUSAT-42 (M WONENBURGER)
1 56966U 23084AL  26195.15700226  .00014389  00000+0  29170-3 0  9991
2 56966  97.5743 340.4271 0006742 149.1687 210.9959 15.46480726172249
NUSAT-44 (MARIA MITCHE*)
1 59122U 24043AA  26195.15710628  .00006598  00000+0  23096-3 0  9995
2 59122  97.5480 335.8326 0006412 134.3954 225.7812 15.29837533131396
NUSAT-50 (NANCY ROMAN)  
1 60493U 24149AB  26195.17775367  .00005466  00000+0  18903-3 0  9992
2 60493  97.3787 276.2522 0004858 103.8394 256.3387 15.30308087106257
NUSAT-48 (HENRIETTA LE*)
1 60498U 24149AG  26195.16673983  .00005336  00000+0  18484-3 0  9997
2 60498  97.3921 276.5311 0004685 161.5514 198.5897 15.30264355106267
NUSAT-49 (KLARA DAN VO*)
1 60500U 24149AJ  26195.14310801  .00005061  00000+0  17492-3 0  9999
2 60500  97.3780 276.2501 0002421 166.8402 193.2902 15.30371601106253
NUSAT-45 (UZMASAT-1)    
1 62640U 25009AH  26195.19752152  .00005090  00000+0  17590-3 0  9997
2 62640  97.3596 276.1551 0001767 180.9236 179.2002 15.30370835 83058
NUSAT-52                
1 66692U 25276AC  26195.14070050  .00003031  00000+0  14378-3 0  9993
2 66692  97.4201 268.2437 0001622 286.2922  73.8135 15.20031156 34512
NUSAT-51 (YVONNE BRILL) 
1 66740U 25276CC  26195.14224049  .00003767  00000+0  17523-3 0  9997
2 66740  97.4207 268.3873 0001736 242.3488 117.7571 15.20559345 34521
